YAOGAN-1
1 29092U 06015A   24093.55362723  .00001231  00000+0  15055-3 0  9990
2 29092  97.8128 120.4749 0001511  91.1909 268.9479 14.84984761970107
YAOGAN-2
1 31490U 07019A   24093.45834050  .00001713  00000+0  23648-3 0  9998
2 31490  98.3135 274.4046 0019153 353.6467   6.4497 14.79438727908311
YAOGAN-3
1 32289U 07055A   24093.87426790  .00002790  00000+0  33663-3 0  9993
2 32289  97.8959 119.9032 0001599 111.8686 248.2699 14.84593407886156
YAOGAN-4
1 33446U 08061A   24093.82346959  .00001883  00000+0  25901-3 0  9998
2 33446  97.8749  27.1763 0015452 165.2903 194.8761 14.79391557826413
YAOGAN-6
1 34839U 09021A   24093.85582527  .00017421  00000+0  37326-3 0  9997
2 34839  97.1649  62.1499 0021385  95.0319 265.3372 15.44572319831812
YAOGAN-7
1 36110U 09069A   24093.90255646  .00000730  00000+0  11298-3 0  9993
2 36110  98.1170 329.4602 0026812 108.7560 251.6562 14.76066374770781
YAOGAN-8
1 36121U 09072A   24093.70379690 -.00000394  00000+0 -10857-2 0  9990
2 36121 100.2886   6.7151 0021010 336.8871  23.1289 13.05022684683687
YAOGAN-9A
1 36413U 10009A   24092.99433194  .00000012  00000+0  89539-4 0  9996
2 36413  63.3738 282.1320 0468516  15.9471 345.5748 13.45376653691492
YAOGAN-9B
1 36414U 10009B   24093.57468415  .00000012  00000+0  89273-4 0  9991
2 36414  63.3753 280.2410 0469064  15.2116 346.2474 13.45390389691347
YAOGAN-9C
1 36415U 10009C   24093.57271540 -.00000007  00000+0  72717-4 0  9993
2 36415  63.3747 280.8158 0469882  15.5194 345.9690 13.45387635691507
YAOGAN-10
1 36834U 10038A   24093.89084671  .00001051  00000+0  13728-3 0  9997
2 36834  97.9544 111.4447 0001480 100.1670  19.9479 14.82598842737843
YAOGAN-11
1 37165U 10047A   24093.49471088  .00001648  00000+0  23027-3 0  9998
2 37165  98.4315 268.6369 0036029 303.8245  55.9536 14.78703556728869
YAOGAN-12
1 37875U 11066B   24093.87925753  .00009389  00000+0  39707-3 0  9995
2 37875  97.2289 156.1154 0003961 213.1904 146.9085 15.23410971689954
YAOGAN-13
1 37941U 11072A   24093.88451164  .00023391  00000+0  60138-3 0  9998
2 37941  97.7162  73.3043 0001455 106.5606 253.5799 15.39280762684873
YAOGAN-14
1 38257U 12021A   24093.76159066  .00011393  00000+0  47589-3 0  9991
2 38257  97.1981 246.2932 0004620 161.0032 199.1378 15.23775294663317
YAOGAN-15
1 38354U 12029A   24093.84871104  .00000012  00000+0  14996-3 0  9992
2 38354 100.7513 271.4991 0024860 312.9246  46.9781 13.18317773569323
YAOGAN-16A
1 39011U 12066A   24093.56848109 -.00000056  00000+0  38908-4 0  9991
2 39011  63.3614 208.8761 0368887  20.8800 340.6854 13.45318733557756
YAOGAN-16B
1 39012U 12066B   24093.57162054 -.00000050  00000+0  45226-4 0  9996
2 39012  63.3620 209.0472 0368914  20.6458 340.9039 13.45320851557778
YAOGAN-16C
1 39013U 12066C   24093.56732182 -.00000055  00000+0  40427-4 0  9994
2 39013  63.3627 208.4740 0369016  20.2708 341.2539 13.45318584557741
YAOGAN-17A
1 39239U 13046A   24093.46238014  .00000040  00000+0  15038-3 0  9999
2 39239  63.3968   6.8339 0355021   8.4456 352.2334 13.45326870519887
YAOGAN-17B
1 39240U 13046B   24093.56152106  .00000022  00000+0  12956-3 0  9995
2 39240  63.3979   7.0037 0355075   8.0867 352.5677 13.45282147519948
YAOGAN-17C
1 39241U 13046C   24093.46723295  .00000033  00000+0  14224-3 0  9990
2 39241  63.3976   6.1403 0355815   8.1285 352.5299 13.45310820519973
YAOGAN-19
1 39410U 13065A   24093.86469518 -.00000008  00000+0  88776-4 0  9995
2 39410 100.0460  98.4480 0009879 141.4995 218.6825 13.15521468497793
GAOFEN-1                
1 39150U 13018A   24093.83803280  .00001026  00000+0  15442-3 0  9998
2 39150  97.9937 166.9876 0019353 341.8996  18.1523 14.76477383589448
GAOFEN-2                
1 40118U 14049A   24093.86167472  .00001465  00000+0  19728-3 0  9996
2 40118  97.6704 147.7759 0004303 342.7793  17.3273 14.80618824520084
GAOFEN-8                
1 40701U 15030A   24093.85308177  .00015173  00000+0  63582-3 0  9991
2 40701  97.6456 247.0707 0000997 136.1091 224.0225 15.23621710488177
GAOFEN-9 01             
1 40894U 15047A   24093.82766662  .00001422  00000+0  19623-3 0  9995
2 40894  97.7388 151.3102 0027988 252.7388 107.0761 14.79414187460953
GAOFEN-4                
1 41194U 15083A   24093.55711867 -.00000336  00000+0  00000+0 0  9995
2 41194   0.0423  34.3228 0002353 114.3316 348.9980  1.00272936 30457
GAOFEN-3                
1 41727U 16049A   24093.88158574  .00000151  00000+0  59051-4 0  9995
2 41727  98.4079 102.6534 0001499  92.3832 267.7529 14.42204691402569
GAOFEN-6                
1 43484U 18048A   24093.81335725  .00001198  00000+0  17867-3 0  9996
2 43484  97.8672 170.1392 0009681 256.6854 103.3277 14.76589726314542
